IRIDIUM 102             
1 41920U 17003D   20312.83979029  .00000092  00000-0  25744-4 0  9999
2 41920  86.4021 223.9214 0002002  76.2781 283.8638 14.34219908199836
IRIDIUM 105             
1 41921U 17003E   20312.74072865  .00000081  00000-0  21888-4 0  9995
2 41921  86.4028 192.4074 0002073 103.0951 257.0477 14.34213660201673
IRIDIUM 104             
1 41922U 17003F   20312.78271306  .00000098  00000-0  27866-4 0  9991
2 41922  86.4022 223.9567 0002036  92.4577 267.6852 14.34217758199817
IRIDIUM 114             
1 41923U 17003G   20312.78905356  .00000100  00000-0  28676-4 0  9995
2 41923  86.4022 223.9434 0002405  82.6781 277.4688 14.34215676199812
