<ndm xmlns:xsi="http://www.w3.org/2001/XMLSchema-instance" xsi:noNamespaceSchemaLocation="http://sanaregistry.org/r/ndmxml/ndmxml-1.0-master.xsd">
<omm id="CCSDS_OMM_VERS" version="2.0">
<header>
<COMMENT>GENERATED VIA SPACE-TRACK.ORG API</COMMENT>
<CREATION_DATE>2020-11-07T22:16:10</CREATION_DATE>
<ORIGINATOR>18 SPCS</ORIGINATOR>
</header>
<body>
<segment>
<metadata>
<OBJECT_NAME>IRIDIUM 102</OBJECT_NAME>
<OBJECT_ID>2017-003D</OBJECT_ID>
<CENTER_NAME>EARTH</CENTER_NAME>
<REF_FRAME>TEME</REF_FRAME>
<TIME_SYSTEM>UTC</TIME_SYSTEM>
<MEAN_ELEMENT_THEORY>SGP4</MEAN_ELEMENT_THEORY>
</metadata>
<data>
<meanElements>
<EPOCH>2020-11-07T20:09:17.881056</EPOCH>
<MEAN_MOTION>14.34219908</MEAN_MOTION>
<ECCENTRICITY>0.00020020</ECCENTRICITY>
<INCLINATION>86.4021</INCLINATION>
<RA_OF_ASC_NODE>223.9214</RA_OF_ASC_NODE>
<ARG_OF_PERICENTER>76.2781</ARG_OF_PERICENTER>
<MEAN_ANOMALY>283.8638</MEAN_ANOMALY>
</meanElements>
<tleParameters>
<EPHEMERIS_TYPE>0</EPHEMERIS_TYPE>
<CLASSIFICATION_TYPE>U</CLASSIFICATION_TYPE>
<NORAD_CAT_ID>41920</NORAD_CAT_ID>
<ELEMENT_SET_NO>999</ELEMENT_SET_NO>
<REV_AT_EPOCH>19983</REV_AT_EPOCH>
<BSTAR>0.00002574400000</BSTAR>
<MEAN_MOTION_DOT>0.00000092</MEAN_MOTION_DOT>
<MEAN_MOTION_DDOT>0.0000000000000</MEAN_MOTION_DDOT>
</tleParameters>
<userDefinedParameters>
<USER_DEFINED parameter="SEMIMAJOR_AXIS">7155.796</USER_DEFINED>
<USER_DEFINED parameter="PERIOD">100.403</USER_DEFINED>
<USER_DEFINED parameter="APOAPSIS">779.094</USER_DEFINED>
<USER_DEFINED parameter="PERIAPSIS">776.229</USER_DEFINED>
<USER_DEFINED parameter="OBJECT_TYPE">PAYLOAD</USER_DEFINED>
<USER_DEFINED parameter="RCS_SIZE">LARGE</USER_DEFINED>
<USER_DEFINED parameter="COUNTRY_CODE">US</USER_DEFINED>
<USER_DEFINED parameter="LAUNCH_DATE">2017-01-14</USER_DEFINED>
<USER_DEFINED parameter="SITE">AFWTR</USER_DEFINED>
<USER_DEFINED parameter="DECAY_DATE"/>
<USER_DEFINED parameter="DECAYED"/>
<USER_DEFINED parameter="FILE">2874774</USER_DEFINED>
<USER_DEFINED parameter="GP_ID">165101731</USER_DEFINED>
</userDefinedParameters>
</data>
</segment>
</body>
</omm>
<omm id="CCSDS_OMM_VERS" version="2.0">
<header>
<COMMENT>GENERATED VIA SPACE-TRACK.ORG API</COMMENT>
<CREATION_DATE>2020-11-08T05:03:59</CREATION_DATE>
<ORIGINATOR>18 SPCS</ORIGINATOR>
</header>
<body>
<segment>
<metadata>
<OBJECT_NAME>IRIDIUM 105</OBJECT_NAME>
<OBJECT_ID>2017-003E</OBJECT_ID>
<CENTER_NAME>EARTH</CENTER_NAME>
<REF_FRAME>TEME</REF_FRAME>
<TIME_SYSTEM>UTC</TIME_SYSTEM>
<MEAN_ELEMENT_THEORY>SGP4</MEAN_ELEMENT_THEORY>
</metadata>
<data>
<meanElements>
<EPOCH>2020-11-07T17:46:38.955360</EPOCH>
<MEAN_MOTION>14.34213660</MEAN_MOTION>
<ECCENTRICITY>0.00020730</ECCENTRICITY>
<INCLINATION>86.4028</INCLINATION>
<RA_OF_ASC_NODE>192.4074</RA_OF_ASC_NODE>
<ARG_OF_PERICENTER>103.0951</ARG_OF_PERICENTER>
<MEAN_ANOMALY>257.0477</MEAN_ANOMALY>
</meanElements>
<tleParameters>
<EPHEMERIS_TYPE>0</EPHEMERIS_TYPE>
<CLASSIFICATION_TYPE>U</CLASSIFICATION_TYPE>
<NORAD_CAT_ID>41921</NORAD_CAT_ID>
<ELEMENT_SET_NO>999</ELEMENT_SET_NO>
<REV_AT_EPOCH>20167</REV_AT_EPOCH>
<BSTAR>0.00002188800000</BSTAR>
<MEAN_MOTION_DOT>0.00000081</MEAN_MOTION_DOT>
<MEAN_MOTION_DDOT>0.0000000000000</MEAN_MOTION_DDOT>
</tleParameters>
<userDefinedParameters>
<USER_DEFINED parameter="SEMIMAJOR_AXIS">7155.817</USER_DEFINED>
<USER_DEFINED parameter="PERIOD">100.403</USER_DEFINED>
<USER_DEFINED parameter="APOAPSIS">779.166</USER_DEFINED>
<USER_DEFINED parameter="PERIAPSIS">776.199</USER_DEFINED>
<USER_DEFINED parameter="OBJECT_TYPE">PAYLOAD</USER_DEFINED>
<USER_DEFINED parameter="RCS_SIZE">LARGE</USER_DEFINED>
<USER_DEFINED parameter="COUNTRY_CODE">US</USER_DEFINED>
<USER_DEFINED parameter="LAUNCH_DATE">2017-01-14</USER_DEFINED>
<USER_DEFINED parameter="SITE">AFWTR</USER_DEFINED>
<USER_DEFINED parameter="DECAY_DATE"/>
<USER_DEFINED parameter="DECAYED"/>
<USER_DEFINED parameter="FILE">2875047</USER_DEFINED>
<USER_DEFINED parameter="GP_ID">165126561</USER_DEFINED>
</userDefinedParameters>
</data>
</segment>
</body>
</omm>
<omm id="CCSDS_OMM_VERS" version="2.0">
<header>
<COMMENT>GENERATED VIA SPACE-TRACK.ORG API</COMMENT>
<CREATION_DATE>2020-11-08T05:03:59</CREATION_DATE>
<ORIGINATOR>18 SPCS</ORIGINATOR>
</header>
<body>
<segment>
<metadata>
<OBJECT_NAME>IRIDIUM 104</OBJECT_NAME>
<OBJECT_ID>2017-003F</OBJECT_ID>
<CENTER_NAME>EARTH</CENTER_NAME>
<REF_FRAME>TEME</REF_FRAME>
<TIME_SYSTEM>UTC</TIME_SYSTEM>
<MEAN_ELEMENT_THEORY>SGP4</MEAN_ELEMENT_THEORY>
</metadata>
<data>
<meanElements>
<EPOCH>2020-11-07T18:47:06.408384</EPOCH>
<MEAN_MOTION>14.34217758</MEAN_MOTION>
<ECCENTRICITY>0.00020360</ECCENTRICITY>
<INCLINATION>86.4022</INCLINATION>
<RA_OF_ASC_NODE>223.9567</RA_OF_ASC_NODE>
<ARG_OF_PERICENTER>92.4577</ARG_OF_PERICENTER>
<MEAN_ANOMALY>267.6852</MEAN_ANOMALY>
</meanElements>
<tleParameters>
<EPHEMERIS_TYPE>0</EPHEMERIS_TYPE>
<CLASSIFICATION_TYPE>U</CLASSIFICATION_TYPE>
<NORAD_CAT_ID>41922</NORAD_CAT_ID>
<ELEMENT_SET_NO>999</ELEMENT_SET_NO>
<REV_AT_EPOCH>19981</REV_AT_EPOCH>
<BSTAR>0.00002786600000</BSTAR>
<MEAN_MOTION_DOT>0.00000098</MEAN_MOTION_DOT>
<MEAN_MOTION_DDOT>0.0000000000000</MEAN_MOTION_DDOT>
</tleParameters>
<userDefinedParameters>
<USER_DEFINED parameter="SEMIMAJOR_AXIS">7155.804</USER_DEFINED>
<USER_DEFINED parameter="PERIOD">100.403</USER_DEFINED>
<USER_DEFINED parameter="APOAPSIS">779.126</USER_DEFINED>
<USER_DEFINED parameter="PERIAPSIS">776.212</USER_DEFINED>
<USER_DEFINED parameter="OBJECT_TYPE">PAYLOAD</USER_DEFINED>
<USER_DEFINED parameter="RCS_SIZE">LARGE</USER_DEFINED>
<USER_DEFINED parameter="COUNTRY_CODE">US</USER_DEFINED>
<USER_DEFINED parameter="LAUNCH_DATE">2017-01-14</USER_DEFINED>
<USER_DEFINED parameter="SITE">AFWTR</USER_DEFINED>
<USER_DEFINED parameter="DECAY_DATE"/>
<USER_DEFINED parameter="DECAYED"/>
<USER_DEFINED parameter="FILE">2875047</USER_DEFINED>
<USER_DEFINED parameter="GP_ID">165123010</USER_DEFINED>
</userDefinedParameters>
</data>
</segment>
</body>
</omm>
<omm id="CCSDS_OMM_VERS" version="2.0">
<header>
<COMMENT>GENERATED VIA SPACE-TRACK.ORG API</COMMENT>
<CREATION_DATE>2020-11-08T05:03:59</CREATION_DATE>
<ORIGINATOR>18 SPCS</ORIGINATOR>
</header>
<body>
<segment>
<metadata>
<OBJECT_NAME>IRIDIUM 114</OBJECT_NAME>
<OBJECT_ID>2017-003G</OBJECT_ID>
<CENTER_NAME>EARTH</CENTER_NAME>
<REF_FRAME>TEME</REF_FRAME>
<TIME_SYSTEM>UTC</TIME_SYSTEM>
<MEAN_ELEMENT_THEORY>SGP4</MEAN_ELEMENT_THEORY>
</metadata>
<data>
<meanElements>
<EPOCH>2020-11-07T18:56:14.227584</EPOCH>
<MEAN_MOTION>14.34215676</MEAN_MOTION>
<ECCENTRICITY>0.00024050</ECCENTRICITY>
<INCLINATION>86.4022</INCLINATION>
<RA_OF_ASC_NODE>223.9434</RA_OF_ASC_NODE>
<ARG_OF_PERICENTER>82.6781</ARG_OF_PERICENTER>
<MEAN_ANOMALY>277.4688</MEAN_ANOMALY>
</meanElements>
<tleParameters>
<EPHEMERIS_TYPE>0</EPHEMERIS_TYPE>
<CLASSIFICATION_TYPE>U</CLASSIFICATION_TYPE>
<NORAD_CAT_ID>41923</NORAD_CAT_ID>
<ELEMENT_SET_NO>999</ELEMENT_SET_NO>
<REV_AT_EPOCH>19981</REV_AT_EPOCH>
<BSTAR>0.00002867600000</BSTAR>
<MEAN_MOTION_DOT>0.00000100</MEAN_MOTION_DOT>
<MEAN_MOTION_DDOT>0.0000000000000</MEAN_MOTION_DDOT>
</tleParameters>
<userDefinedParameters>
<USER_DEFINED parameter="SEMIMAJOR_AXIS">7155.811</USER_DEFINED>
<USER_DEFINED parameter="PERIOD">100.403</USER_DEFINED>
<USER_DEFINED parameter="APOAPSIS">779.397</USER_DEFINED>
<USER_DEFINED parameter="PERIAPSIS">775.955</USER_DEFINED>
<USER_DEFINED parameter="OBJECT_TYPE">PAYLOAD</USER_DEFINED>
<USER_DEFINED parameter="RCS_SIZE">LARGE</USER_DEFINED>
<USER_DEFINED parameter="COUNTRY_CODE">US</USER_DEFINED>
<USER_DEFINED parameter="LAUNCH_DATE">2017-01-14</USER_DEFINED>
<USER_DEFINED parameter="SITE">AFWTR</USER_DEFINED>
<USER_DEFINED parameter="DECAY_DATE"/>
<USER_DEFINED parameter="DECAYED"/>
<USER_DEFINED parameter="FILE">2875047</USER_DEFINED>
<USER_DEFINED parameter="GP_ID">165126390</USER_DEFINED>
</userDefinedParameters>
</data>
</segment>
</body>
</omm>

</ndm>